IRIDIUM 155             
1 43573U 18061E   19221.53756857  .00000072  00000-0  18682-4 0  9997
2 43573  86.3970  22.9946 0001487  98.5879 261.5485 14.34218055 54514
IRIDIUM 154             
1 43574U 18061F   19221.51854657  .00000075  00000-0  19723-4 0  9993
2 43574  86.3974  23.0176 0002421  85.0908 275.0564 14.34217374 54554
IRIDIUM 163             
1 43575U 18061G   19221.49952602  .00000071  00000-0  18120-4 0  9996
2 43575  86.3972  23.0167 0002798 101.7823 258.3687 14.34218462 54528
IRIDIUM 156             
1 43576U 18061H   19221.54390945  .00000075  00000-0  19854-4 0  9998
2 43576  86.3971  23.0025 0002168 103.1827 256.9611 14.34217506 54510
IRIDIUM 164             
1 43577U 18061J   19221.52488208 -.00000022  00000-0 -14977-4 0  9992
2 43577  86.3967  23.0130 0002349  87.1736 272.9729 14.34216204 54561
IRIDIUM 159             
1 43578U 18061K   19221.49317151  .00000070  00000-0  17957-4 0  9999
2 43578  86.3970  23.0154 0002331  88.6254 271.5209 14.34217253 54523
IRIDIUM 180             
1 43922U 19002A   19221.42289546  .00000053  00000-0  11853-4 0  9997
2 43922  86.3989 319.8848 0003454  84.9911 275.1679 14.34215380 30162
IRIDIUM 176             
1 43923U 19002B   19221.36450081  .00000108  00000-0  13178-4 0  9998
2 43923  86.6129 319.9274 0002609  98.7252 261.4261 14.72248362 30868
IRIDIUM 168             
1 43924U 19002C   19221.55610901  .00000051  00000-0  11032-4 0  9993
2 43924  86.3997 319.8361 0002544  88.0775 272.0712 14.34218055 30127
IRIDIUM 173             
1 43925U 19002D   19221.40388220  .00000045  00000-0  91008-5 0  9999
2 43925  86.3994 319.8902 0002444  91.4487 268.6988 14.34216798 30097
IRIDIUM 169             
1 43926U 19002E   19221.45327666  .00000055  00000-0  11750-4 0  9998
2 43926  87.4070 341.0703 0000970 352.9313   7.1873 14.38624621 30266
IRIDIUM 172             
1 43927U 19002F   19221.32777070  .00000063  00000-0  15412-4 0  9991
2 43927  86.3994 319.9222 0002609  89.7051 270.4444 14.34219539 30088
IRIDIUM 175             
1 43928U 19002G   19221.42628009  .00000110  00000-0  13522-4 0  9993
2 43928  86.6112 319.8551 0001412  93.4382 266.6997 14.72248342 30860
IRIDIUM 171             
1 43929U 19002H   19221.44828247  .00000054  00000-0  12101-4 0  9991
2 43929  86.4004 319.8998 0002479  88.3506 271.7974 14.34217859 30093
IRIDIUM 170             
1 43930U 19002J   19221.37067029  .00000103  00000-0  12488-4 0  9991
2 43930  86.6129 319.9325 0002285 102.2126 257.9347 14.72248132 30875
IRIDIUM 167             
1 43931U 19002K   19221.37217131  .00000057  00000-0  13202-4 0  9996
2 43931  86.3996 319.9040 0003348  83.5632 276.5945 14.34217514 30085
